{
  "norad_id": 60444,
  "name": "STARLINK-32249",
  "history": [
    {
      "epoch": "2026-03-28T19:42:54.677952Z",
      "apogee_km": 476.07392334610995,
      "perigee_km": 474.39539555927695,
      "latitude_deg": 1.1616090432850822e-05,
      "longitude_deg": 5.918173945285294,
      "height_km": 476.02536133416123,
      "semi_major_axis_km": 6853.371659452693,
      "eccentricity": 0.00012246,
      "inclination_deg": 53.1593,
      "raan_deg": 127.8824,
      "arg_perigee_deg": 82.6497,
      "mean_anomaly_deg": 277.4643,
      "mean_motion_rev_day": 15.30193439
    }
  ]
}