{"fetched_at":"2026-03-30T06:02:59Z","count":15439,"tles":[{"name":"STARLINK-32249","line1":"1 60444U 24144V   26087.82146618  .00000085  00000+0  15010-4 0  9995","line2":"2 60444  53.1593 127.8824 0001224  82.6497 277.4643 15.30193439 92285","category":"Starlink"}]}